TIANMU-1 15             
1 58700U 24004A   24031.88975399  .00014457  00000+0  80009-3 0  9998
2 58700  97.4577 215.7228 0011602 160.0927 200.0760 15.13894117  3999
TIANMU-1 16             
1 58701U 24004B   24031.88448006  .00005344  00000+0  29688-3 0  9990
2 58701  97.4501 215.7034 0011558 165.6795 194.4766 15.14073863  3996
TIANMU-1 17             
1 58702U 24004C   24031.87949995  .00005542  00000+0  30342-3 0  9992
2 58702  97.4546 215.7258 0011008 168.6551 191.4932 15.14581881  3982
TIANMU-1 18             
1 58703U 24004D   24031.93872715  .00005684  00000+0  30765-3 0  9991
2 58703  97.4561 215.8047 0011589 177.7544 182.3742 15.14973343  3991
OVZON-3                 
1 58698U 24003A   24031.58333333 -.00000181  00000+0  16211-2 0  9999
2 58698  20.2681 289.4016 7122687 189.2738 156.2279  1.32923506   427
FALCON 9 R/B            
1 58699U 24003B   24030.63996277  .00008167  00000+0  40354-2 0  9993
2 58699  26.5910 288.5784 7794628 191.7144 123.4858  1.66586744   451
TIANMU-1 15             
1 58700U 24004A   24031.88975399  .00014457  00000+0  80009-3 0  9998
2 58700  97.4577 215.7228 0011602 160.0927 200.0760 15.13894117  3999
TIANMU-1 16             
1 58701U 24004B   24031.88448006  .00005344  00000+0  29688-3 0  9990
2 58701  97.4501 215.7034 0011558 165.6795 194.4766 15.14073863  3996
TIANMU-1 17             
1 58702U 24004C   24031.87949995  .00005542  00000+0  30342-3 0  9992
2 58702  97.4546 215.7258 0011008 168.6551 191.4932 15.14581881  3982
TIANMU-1 18             
1 58703U 24004D   24031.93872715  .00005684  00000+0  30765-3 0  9991
2 58703  97.4561 215.8047 0011589 177.7544 182.3742 15.14973343  3991
STARLINK-11072 [DTC]    
1 58705U 24002A   24031.76280589  .00007261  00000+0  64692-4 0  9994
2 58705  53.1601 107.1175 0001042  59.7719 300.3402 15.69728008  5722
STARLINK-11075 [DTC]    
1 58706U 24002B   24031.63320203  .00028498  00000+0  23922-3 0  9994
2 58706  53.1593 107.7283 0000957 117.6440 242.4675 15.69714842  5705
STARLINK-11077 [DTC]    
1 58707U 24002C   24031.75592356  .00057642  00000+0  47669-3 0  9995
2 58707  53.1568 107.0631 0000660  27.2080 332.8972 15.69742849  5729
STARLINK-11079 [DTC]    
1 58708U 24002D   24031.75093936  .00006959  00000+0  62315-4 0  9997
2 58708  53.1574 107.0349 0000984 121.6021 238.5093 15.69684886  5728
STARLINK-11076 [DTC]    
1 58709U 24002E   24031.59893362  .00084006  00000+0  68916-3 0  9992
2 58709  53.1570 107.5108 0001242  95.4916 264.6243 15.69782924  5541
STARLINK-11078 [DTC]    
1 58710U 24002F   24031.60118517 -.00009367  00000+0 -72511-4 0  9994
2 58710  53.1577 107.5218 0001199  74.9452 285.1699 15.69719001  5707
STARLINK-31031          
1 58711U 24002G   24031.61161081  .00035339  00000+0  12807-2 0  9996
2 58711  53.1609 112.6395 0002059 132.7192 227.3981 15.28063913  5630
STARLINK-31029          
1 58712U 24002H   24031.51355937  .00019460  00000+0  71298-3 0  9998
2 58712  53.1575 113.4428 0001743  87.0521 273.0678 15.28037721  5613
STARLINK-30973          
1 58713U 24002J   24031.51321334  .00071896  00000+0  25807-2 0  9998
2 58713  53.1583 113.4406 0001835  89.8803 270.2407 15.28051844  5615
STARLINK-31100          
1 58714U 24002K   24031.77049025  .00040763  00000+0  14734-2 0  9997
2 58714  53.1566 112.1942 0001741 109.0717 251.0471 15.28082778  5655
STARLINK-31102          
1 58715U 24002L   24031.63934499  .00059062  00000+0  21248-2 0  9991
2 58715  53.1580 112.8002 0002016  60.3253 299.7947 15.28069041  5639
STARLINK-31098          
1 58716U 24002M   24031.63500268  .00069606  00000+0  24975-2 0  9990
2 58716  53.1584 112.7748 0001913  65.9082 294.2118 15.28080068  5638
STARLINK-31093          
1 58717U 24002N   24031.61594747  .00012965  00000+0  47964-3 0  9994
2 58717  53.1634 112.6565 0001639  84.0407 276.0779 15.28038609  5634
STARLINK-31097          
1 58718U 24002P   24031.49951634  .00021683  00000+0  79237-3 0  9998
2 58718  53.1602 113.3576 0001768  85.5361 274.5841 15.28053882  5619
STARLINK-31051          
1 58719U 24002Q   24031.62998751  .00065658  00000+0  23589-2 0  9993
2 58719  53.1599 112.7429 0001727  84.3572 275.7625 15.28065455  5635
STARLINK-31027          
1 58720U 24002R   24031.75647394  .00021142  00000+0  77340-3 0  9998
2 58720  53.1604 112.1112 0001713 115.9525 244.1651 15.28035580  5658
STARLINK-30972          
1 58721U 24002S   24031.75611647  .00043402  00000+0  15673-2 0  9994
2 58721  53.1593 112.1043 0001518 111.1434 248.9728 15.28085670  5651
STARLINK-31040          
1 58722U 24002T   24031.62097166  .00070228  00000+0  25213-2 0  9992
2 58722  53.1613 112.6864 0002041  74.4866 285.6359 15.28056533  5635
STARLINK-31033          
1 58723U 24002U   24031.61126490  .00067419  00000+0  24198-2 0  9994
2 58723  53.1603 112.6215 0001988  59.9007 300.2190 15.28084645  5631
STARLINK-30893          
1 58724U 24002V   24031.62064194  .00035483  00000+0  12870-2 0  9998
2 58724  53.1621 112.6870 0001659  97.1730 262.9458 15.28034207  5631
STARLINK-30856          
1 58725U 24002W   24031.61629384  .00024868  00000+0  90674-3 0  9990
2 58725  53.1596 112.6598 0001976 125.1846 234.9339 15.28045674  5639
STARLINK-31155          
1 58728U 24005A   24031.91667824 -.02206284  00000+0 -57666-1 0  9990
2 58728  43.0003  78.0896 0001652 274.7138 123.3470 15.41309034  4886
STARLINK-31115          
1 58729U 24005B   24031.91667824 -.02210129  00000+0 -56486-1 0  9993
2 58729  43.0002  78.0732 0001285 272.0301 132.7271 15.41983059  4888
STARLINK-31150          
1 58730U 24005C   24030.15850837  .00166977  00000+0  10767-2 0  9998
2 58730  42.9997  87.3175 0001512  14.4537 345.6376 15.74868456  4618
STARLINK-31204          
1 58731U 24005D   24031.91667824 -.02212916  00000+0 -54040-1 0  9996
2 58731  43.0001  78.0428 0001255 270.0052 147.1053 15.43328954  4876
STARLINK-31180          
1 58732U 24005E   24031.91667824 -.02179398  00000+0 -52960-1 0  9992
2 58732  42.9999  78.0287 0001319 267.6174 155.1495 15.44004521  4884
STARLINK-31164          
1 58733U 24005F   24031.91667824 -.02174187  00000+0 -51612-1 0  9997
2 58733  43.0001  78.0158 0001411 278.6223 149.4553 15.44674176  4888
STARLINK-31152          
1 58734U 24005G   24031.91667824 -.02176663  00000+0 -50492-1 0  9994
2 58734  43.0000  78.0037 0001264 277.4899 155.5517 15.45347819  4875
STARLINK-31157          
1 58735U 24005H   24031.91667824 -.02177278  00000+0 -49340-1 0  9998
2 58735  43.0002  77.9921 0001403 275.2880 162.3710 15.46020364  4874
STARLINK-31076          
1 58736U 24005J   24031.91667824 -.02180484  00000+0 -48273-1 0  9996
2 58736  43.0001  77.9817 0001472 271.3026 170.6272 15.46694116  4937
STARLINK-31101          
1 58737U 24005K   24031.91667824 -.02182690  00000+0 -46101-1 0  9996
2 58737  43.0000  77.9630 0001125 276.6354 172.7965 15.48040099  4880
STARLINK-31108          
1 58738U 24005L   24031.25648807 -.00391881  00000+0 -69641-2 0  9991
2 58738  42.9995  81.8248 0001551 267.1757  92.8926 15.50777485  4761
STARLINK-31042          
1 58739U 24005M   24031.91667824 -.02181373  00000+0 -44987-1 0  9995
2 58739  43.0001  77.9551 0001139 281.3763 171.2874 15.48711633  4878
STARLINK-31159          
1 58740U 24005N   24031.91667824 -.02185787  00000+0 -44017-1 0  9994
2 58740  42.9999  77.9478 0001370 274.6290 180.9190 15.49386512  4973
STARLINK-31148          
1 58741U 24005P   24031.91667824 -.02206884  00000+0 -74030-1 0  9995
2 58741  43.0002  78.2800 0001716 264.2222  54.5266 15.33698848  4878
STARLINK-31151          
1 58742U 24005Q   24031.91667824 -.02203691  00000+0 -72339-1 0  9999
2 58742  43.0004  78.2548 0001700 265.6492  63.7187 15.34369636  4973
STARLINK-31156          
1 58743U 24005R   24031.91667824 -.02205276  00000+0 -70847-1 0  9993
2 58743  43.0002  78.2292 0001621 267.8296  71.8102 15.35042722  4989
STARLINK-31167          
1 58744U 24005S   24031.91667824 -.02201737  00000+0 -69203-1 0  9996
2 58744  43.0003  78.2050 0001590 274.4627  75.1023 15.35713898  4988
STARLINK-31176          
1 58745U 24005T   24031.91667824 -.02200907  00000+0 -67681-1 0  9993
2 58745  43.0002  78.1821 0001662 274.2017  84.9431 15.36385307  4931
STARLINK-31181          
1 58746U 24005U   24031.91667824 -.02202415  00000+0 -74818-1 0  9990
2 58746  43.0001  77.9173 0001378 273.1211 189.3140 15.33299375  4984
STARLINK-31183          
1 58747U 24005V   24031.91667824 -.02203680  00000+0 -66390-1 0  9992
2 58747  43.0002  78.1584 0001500 265.1118 103.6431 15.37020358  5024
STARLINK-31165          
1 58748U 24005W   24031.91667824 -.02203505  00000+0 -64936-1 0  9993
2 58748  43.0000  78.1366 0001586 273.2626 104.3976 15.37693147  4921
STARLINK-31160          
1 58749U 24005X   24031.91667824 -.01980237  00000+0 -36126-1 0  9997
2 58749  42.9999  76.8317 0001007 257.5663 285.0327 15.51794307  4925
STARLINK-31179          
1 58750U 24005Y   24031.91667824 -.02205160  00000+0 -63649-1 0  9995
2 58750  43.0003  78.1138 0001534 271.1230 115.5127 15.38327693  4939
VULCAN CENTAUR R/B      
1 58752U 24006B   24008.31572917  .00000148  00000+0  00000+0 0  9999
2 58752  30.0000  29.8668 0004000 321.7000 177.4980 15.23529836    08
EINSTEIN PROBE          
1 58753U 24007A   24031.53600139  .00003901  00000+0  35108-3 0  9990
2 58753  28.9989  63.3734 0011459 157.7183 202.3912 14.93253616  3331
CZ-2C R/B               
1 58754U 24007B   24031.48905414  .00009986  00000+0  43947-3 0  9998
2 58754  29.0183  58.9384 0113036 220.0967 139.1247 15.14479401  3322
NANOFF B                
1 58755U 23185S   24031.90550396  .00003370  00000+0  26115-3 0  9996
2 58755  97.6398 100.7838 0016590  40.3343 319.9109 15.01981374  3216
